[{"OBJECT_NAME":"STARLINK-4466","OBJECT_ID":"2022-105J","EPOCH":"2026-03-09T15:02:06.192384","MEAN_MOTION":15.01258493,"ECCENTRICITY":9.55e-5,"INCLINATION":97.6037,"RA_OF_ASC_NODE":310.1444,"ARG_OF_PERICENTER":143.0445,"MEAN_ANOMALY":217.0846,"EPHEMERIS_TYPE":0,"CLASSIFICATION_TYPE":"U","NORAD_CAT_ID":53656,"ELEMENT_SET_NO":999,"REV_AT_EPOCH":19322,"BSTAR":8.3134e-6,"MEAN_MOTION_DOT":4.9e-7,"MEAN_MOTION_DDOT":0},{"OBJECT_NAME":"CZ-6A DEB","OBJECT_ID":"2022-151CR","EPOCH":"2026-03-09T17:17:08.438784","MEAN_MOTION":15.11778726,"ECCENTRICITY":0.00454354,"INCLINATION":98.5417,"RA_OF_ASC_NODE":160.2576,"ARG_OF_PERICENTER":86.1357,"MEAN_ANOMALY":274.5063,"EPHEMERIS_TYPE":0,"CLASSIFICATION_TYPE":"U","NORAD_CAT_ID":54346,"ELEMENT_SET_NO":999,"REV_AT_EPOCH":17769,"BSTAR":0.0041471579,"MEAN_MOTION_DOT":0.00073134,"MEAN_MOTION_DDOT":0}]
